DELTA 1 DEB
1 06251U 62025E   06176.82412014  .00008885  00000-0  12808-3 0  3985
2 06251  58.0579  54.0425 0030035 139.1568 221.1854 15.56387291  6774
MOLNIYA 2-14
1 08195U 75081A   06176.33215444  .00000099  00000-0  11873-3 0   813
2 08195  64.1586 279.0717 6877146 264.7651  20.2257  2.00491383225656
NAVSTAR 53 (USA 175)
1 28129U 03058A   06175.57071136 -.00000104  00000-0  10000-3 0   459
2 28129  54.7298 324.8098 0048506 266.2640  93.1663  2.00562768 18443
ITALSAT 2
1 24208U 96044A   06177.04061740 -.00000094  00000-0  10000-3 0  1600
2 24208   3.8536  80.0121 0026640 311.0977  48.3000  1.00778054 36119
CBERS 2
1 28057U 03049A   06177.78615833  .00000060  00000-0  35940-4 0  1836
2 28057  98.4283 247.6961 0000884  88.1964 271.9322 14.35478080140550
MOLNIYA 1-36
1 09880U 77021A   06176.56157475  .00000421  00000-0  10000-3 0  9814
2 09880  64.5968 349.3786 7069051 270.0229  16.3320  2.00813614112380
EUTELSAT 1-F1 (ECS1)
1 14128U 83058A   06176.02844893 -.00000158  00000-0  10000-3 0  9627
2 14128  11.4384  35.2134 0011562  26.4582 333.5652  0.98870114 46093
XM-3
1 28626U 05008A   06176.46683397 -.00000205  00000-0  10000-3 0  2190
2 28626   0.0019 286.9433 0000335  13.7918  55.6504  1.00270176  4891
